JCSAT-RA (JCSAT-12)     
1 35755U 09044A   16214.78129771 -.00000372  00000-0  00000+0 0  9990
2 35755   0.0438  45.7708 0000549  55.5814 258.6336  1.00272067 25509
OPTUS D3                
1 35756U 09044B   16214.62083888 -.00000174  00000-0  00000+0 0  9992
2 35756   0.0429 357.2022 0002659 116.2612 216.6954  1.00272299 25467
PALAPA D                
1 35812U 09046A   16211.83097603 -.00000380  00000-0  00000+0 0  9996
2 35812   0.0223  81.9772 0001424  55.3262 222.6927  1.00272157 25480
NIMIQ 5                 
1 35873U 09050A   16213.44612663 -.00000283  00000-0  00000+0 0  9998
2 35873   0.0256  80.1060 0001716  50.4378 266.8515  1.00269437 25189
AMAZONAS 2              
1 35942U 09054A   16215.17019949 -.00000310  00000-0  00000+0 0  9990
2 35942   0.0262 152.4680 0005256 350.3248 168.6577  1.00272557 25033
COMSATBW-1              
1 35943U 09054B   16214.56633150 -.00000002  00000-0  00000+0 0  9997
2 35943   0.0530  97.6619 0002064  51.1057  68.6828  1.00271603 25097
NSS-12                  
1 36032U 09058A   16215.01549035  .00000044  00000-0  00000+0 0  9995
2 36032   0.0509 281.2971 0002770 208.6680 243.6382  1.00272770 24781
THOR 6                  
1 36033U 09058B   16214.33100108 -.00000037  00000-0  00000+0 0  9997
2 36033   0.0252 184.4523 0001508 317.4400 286.7618  1.00272240 24794
INTELSAT 14 (IS-14)     
1 36097U 09064A   16215.26039169 -.00000301  00000-0  00000+0 0  9999
2 36097   0.0136  56.8338 0001995  81.3722 221.8092  1.00268385 24550
EUTELSAT 36B            
1 36101U 09065A   16215.13698575  .00000128  00000-0  00000+0 0  9990
2 36101   0.0647  11.4074 0003984 124.3855 260.5495  1.00271037 24658
INTELSAT 15 (IS-15)     
1 36106U 09067A   16215.51058532 -.00000213  00000-0  00000+0 0  9998
2 36106   0.0375 272.6790 0001924 215.4987  92.2968  1.00272746 24447
DIRECTV 12              
1 36131U 09075A   16215.44090360 -.00000130  00000-0  00000+0 0  9990
2 36131   0.0375 255.4076 0000200  74.5678  37.3770  1.00272286 24235
BEIDOU G1               
1 36287U 10001A   16214.80088913 -.00000309  00000-0  10000-3 0  9996
2 36287   1.5253   0.1250 0003491 216.1665 162.8801  1.00270485 24016
RADUGA-1M 2             
1 36358U 10002A   16214.79979846 -.00000211  00000-0  00000+0 0  9995
2 36358   0.0179 258.0374 0001747 291.5908 134.1049  1.00270987 23849
SDO                     
1 36395U 10005A   16215.31289771 -.00000099  00000-0  00000+0 0  9993
2 36395  28.4416 146.1937 0000771 159.8348  15.7320  1.00269600 23879
INTELSAT 16 (IS-16)     
1 36397U 10006A   16215.31407164 -.00000312  00000-0  00000+0 0  9992
2 36397   0.0582 270.9065 0001365 238.2356 217.1385  1.00271040 23588
GOES 15                 
1 36411U 10008A   16214.51207735  .00000059  00000-0  00000+0 0  9991
2 36411   0.2635  97.7078 0000636 126.7143 135.5527  1.00283290 23525
ECHOSTAR 14             
1 36499U 10010A   16215.54541558 -.00000027  00000-0  00000+0 0  9994
2 36499   0.0181  89.1860 0002868  38.0159 261.8085  1.00271027 23381
SES-1                   
1 36516U 10016A   16215.45002571 -.00000142  00000-0  00000+0 0  9995
2 36516   0.0477 276.2598 0001222 209.2395 246.9583  1.00271799 22981
ASTRA 3B                
1 36581U 10021A   16215.01855196  .00000110  00000-0  00000+0 0  9998
2 36581   0.0491 341.4499 0002947 156.1348 203.5986  1.00272941 22488
COMSATBW-2              
1 36582U 10021B   16215.04770624  .00000060  00000-0  00000+0 0  9998
2 36582   0.0120 295.3062 0001372 207.9639 198.1540  1.00268945 22822
BEIDOU G3               
1 36590U 10024A   16215.00353348 -.00000382  00000-0  00000+0 0  9994
2 36590   1.3116  20.7489 0004670 301.7951 100.2087  1.00277181 22627
BADR-5                  
1 36592U 10025A   16214.97826990  .00000117  00000-0  00000+0 0  9995
2 36592   0.0182 115.4175 0004514  36.9167 176.7976  1.00273199 22737
COMS 1                  
1 36744U 10032A   16215.50952005 -.00000372  00000-0  00000+0 0  9993
2 36744   0.0311  83.4398 0000590 104.8729  74.7976  1.00270379 22497
ARABSAT-5A              
1 36745U 10032B   16215.02475336  .00000126  00000-0  00000+0 0  9994
2 36745   0.0517   5.5928 0003285 120.4677 224.3741  1.00269929 22469
ECHOSTAR 15             
1 36792U 10034A   16214.39371157 -.00000309  00000-0  00000+0 0  9997
2 36792   0.0486 275.6772 0001960 229.2049 245.5988  1.00270008 22235
NILESAT 201             
1 36830U 10037A   16215.11744005 -.00000085  00000-0  00000+0 0  9991
2 36830   0.0529 196.4869 0005175 284.8667 225.0371  1.00272384 22124
RASCOM-QAF 1R           
1 36831U 10037B   16214.13049801 -.00000008  00000-0  00000+0 0  9990
2 36831   0.0162  71.0926 0004378  68.2584 220.6623  1.00272164 22123
CHINASAT 6A (ZX 6A)     
1 37150U 10042A   16214.93113514 -.00000381  00000-0  00000+0 0  9996
2 37150   0.0430 114.5563 0002037 330.5408 326.0946  1.00268253 21746
XM-5                    
1 37185U 10053A   16215.31335508 -.00000232  00000-0  00000+0 0  9993
2 37185   0.0216  74.9001 0002930 320.5020 303.5500  1.00269144 21288
BSAT-3B                 
1 37207U 10056B   16215.44173223 -.00000378  00000-0  00000+0 0  9990
2 37207   0.0733 304.8316 0000825 359.3761 276.1165  1.00271171 21111
BEIDOU G4               
1 37210U 10057A   16214.80345163 -.00000140  00000-0  00000+0 0  9995
2 37210   0.8483  47.5439 0006931 164.8045 187.6607  1.00272814 21123
SKYTERRA 1              
1 37218U 10061A   16214.32973389 -.00000139  00000-0  00000+0 0  9990
2 37218   3.6158 327.3989 0007740 184.7426 175.5770  1.00271713 21060
ZHONGXING-20A           
1 37234U 10064A   16215.45096492 -.00000365  00000-0  00000+0 0  9998
2 37234   0.0845 104.1054 0001435 100.8006  38.8781  1.00266465 20873
HYLAS 1                 
1 37237U 10065A   16214.32100647 -.00000260  00000-0  00000+0 0  9999
2 37237   0.0478 309.1385 0001242 189.6171 253.6329  1.00274110 20844
INTELSAT 17 (IS-17)     
1 37238U 10065B   16214.88842057 -.00000029  00000-0  00000+0 0  9992
2 37238   0.0524 257.6808 0002564 246.4082 192.6409  1.00272631 20752
EUTELSAT KA-SAT 9A      
1 37258U 10069A   16215.11088975  .00000034  00000-0  00000+0 0  9991
2 37258   0.0544 279.6809 0004771 207.2169 233.1255  1.00272613 20664
HISPASAT 1E             
1 37264U 10070A   16214.39320209 -.00000243  00000-0  00000+0 0  9991
2 37264   0.0305 117.8699 0004515  21.8691 282.2216  1.00270112 20509
KOREASAT 6              
1 37265U 10070B   16212.84574521 -.00000387  00000-0  00000+0 0  9997
2 37265   0.0160  79.6207 0001298  50.8554 238.8783  1.00272323 20506
ELEKTRO-L 1 (GOMS 2)    
1 37344U 11001A   16214.70354958  .00000092  00000-0  00000+0 0  9999
2 37344   1.7913  79.2266 0034210  81.1865  80.3760  0.99712111 20305
BEIDOU IGSO 3           
1 37384U 11013A   16213.63554067 -.00000189  00000-0  10000-3 0  9993
2 37384  57.4255  76.3030 0024250 196.5533  23.2007  1.00249208 19504
INTELSAT NEW DAWN       
1 37392U 11016A   16215.02429314  .00000128  00000-0  00000+0 0  9993
2 37392   0.0194 251.3562 0000500 164.1896 297.0174  1.00271369 19351
YAHSAT 1A               
1 37393U 11016B   16215.13564737  .00000074  00000-0  00000+0 0  9995
2 37393   0.0240  88.8122 0001014   7.6140 316.0507  1.00268086 19403
TELSTAR 14R             
1 37602U 11021A   16215.31394968 -.00000307  00000-0  00000+0 0  9991
2 37602   0.0542 280.0470 0000752  39.9713  41.3065  1.00271670 19630
GSAT-8                  
1 37605U 11022A   16215.13680299  .00000058  00000-0  00000+0 0  9992
2 37605   0.0765  97.7245 0003928 153.6588 164.0358  1.00272740 19081
ST-2                    
1 37606U 11022B   16215.00441767 -.00000238  00000-0  00000+0 0  9995
2 37606   0.0147  96.4813 0001068  56.7268 247.3936  1.00270859 19091
CHINASAT 10 (ZX 10)     
1 37677U 11026A   16215.44173223 -.00000379  00000-0  00000+0 0  9990
2 37677   0.0168  82.1160 0004377 166.2141 332.6154  1.00267984 18816
TIANLIAN 1-02           
1 37737U 11032A   16214.57172244  .00000001  00000-0  00000+0 0  9990
2 37737   1.9416  79.0077 0003749 139.7660 114.3631  1.00271858 18555
GSAT-12                 
1 37746U 11034A   16215.06509781 -.00000192  00000-0  00000+0 0  9999
2 37746   0.0128 268.4438 0005895 190.9154 318.1854  1.00270112 18790
SES-3                   
1 37748U 11035A   16214.42626028 -.00000129  00000-0  00000+0 0  9995
2 37748   0.0387 295.5682 0002080 201.5333 223.7979  1.00271974 18530
KAZSAT-2                
1 37749U 11035B   16215.04354654 -.00000227  00000-0  00000+0 0  9997
2 37749   0.0189 154.6867 0000967  31.3875 227.1832  1.00278370 18413
ASTRA 1N                
1 37775U 11041A   16213.74649106  .00000094  00000-0  00000+0 0  9998
2 37775   0.0531 351.2075 0003821  90.8547 155.6182  1.00273481 18227
BSAT-3C (JCSAT-110R)    
1 37776U 11041B   16215.00353348 -.00000378  00000-0  00000+0 0  9996
2 37776   0.0110  20.0377 0000343 248.2025 154.0104  1.00272123 18367
PAKSAT-1R               
1 37779U 11042A   16215.13597157  .00000126  00000-0  00000+0 0  9992
2 37779   0.0385 241.8216 0001701 247.8679 268.4040  1.00273663 18121
CHINASAT 1A (ZX 1A)     
1 37804U 11047A   16212.84133369 -.00000362  00000-0  00000+0 0  9995
2 37804   0.0477 244.1067 0001650 358.9529 138.5549  1.00272175 17906
COSMOS 2473             
1 37806U 11048A   16215.17307473 -.00000135  00000-0  00000+0 0  9994
2 37806   0.0596 145.4916 0001149 144.5206  69.9546  1.00272630 17911
SES-2                   
1 37809U 11049A   16215.57520890 -.00000223  00000-0  00000+0 0  9990
2 37809   0.0633 276.6066 0001809 197.7063 317.3309  1.00271707 17868
ARABSAT-5C              
1 37810U 11049B   16215.01855196  .00000096  00000-0  00000+0 0  9998
2 37810   0.0633 354.2145 0003089 141.4538 202.0570  1.00274615 17744
EUTELSAT 7 WEST A       
1 37816U 11051A   16214.15874036 -.00000087  00000-0  00000+0 0  9996
2 37816   0.0576  14.3453 0002928 134.2934 211.3592  1.00271131 17807
